{
  "type": "FeatureCollection",
  "features": [
    {
      "type": "Feature",
      "properties": {
        "norad_id": 41599,
        "name": "CARTOSAT-2C",
        "group": "resource",
        "lat": 35.541966045183315,
        "lon": -119.00847281341649,
        "alt_km": 509.3460027484589,
        "timestamp": "2025-12-24T11:32:59.661240+00:00",
        "meta_object_name": "CARTOSAT-2C",
        "meta_object_id": "2016-040A",
        "meta_epoch": "2025-12-24T04:35:44.615040",
        "meta_mean_motion": 15.19214626,
        "meta_eccentricity": 0.0010741,
        "meta_inclination": 97.4745,
        "meta_ra_of_asc_node": 55.3229,
        "meta_arg_of_pericenter": 26.9085,
        "meta_mean_anomaly": 333.2704,
        "meta_ephemeris_type": 0,
        "meta_classification_type": "U",
        "meta_norad_cat_id": 41599,
        "meta_element_set_no": 999,
        "meta_rev_at_epoch": 52714,
        "meta_bstar": 0.00019016,
        "meta_mean_motion_dot": 3.94e-05,
        "meta_mean_motion_ddot": 0,
        "tle_line1": "1 41599U 16040A   25358.19148860  .00003940  00000+0  19016-3 0  9994",
        "tle_line2": "2 41599  97.4745  55.3229 0010741  26.9085 333.2704 15.19214626527143"
      },
      "geometry": {
        "type": "Point",
        "coordinates": [
          -119.00847281341649,
          35.541966045183315
        ]
      }
    },
    {
      "type": "Feature",
      "properties": {
        "norad_id": 41601,
        "name": "SKYSAT-C1",
        "group": "resource",
        "lat": 47.20435775729858,
        "lon": 27.228251134375665,
        "alt_km": 463.24579843971514,
        "timestamp": "2025-12-24T11:32:59.661251+00:00",
        "meta_object_name": "SKYSAT-C1",
        "meta_object_id": "2016-040C",
        "meta_epoch": "2025-12-24T00:22:30.387936",
        "meta_mean_motion": 15.32785523,
        "meta_eccentricity": 0.0001064,
        "meta_inclination": 96.9803,
        "meta_ra_of_asc_node": 34.3932,
        "meta_arg_of_pericenter": 330.1736,
        "meta_mean_anomaly": 29.9446,
        "meta_ephemeris_type": 0,
        "meta_classification_type": "U",
        "meta_norad_cat_id": 41601,
        "meta_element_set_no": 999,
        "meta_rev_at_epoch": 53100,
        "meta_bstar": 0.00029648,
        "meta_mean_motion_dot": 9.317e-05,
        "meta_mean_motion_ddot": 0,
        "tle_line1": "1 41601U 16040C   25358.01562949  .00009317  00000+0  29648-3 0  9993",
        "tle_line2": "2 41601  96.9803  34.3932 0001064 330.1736  29.9446 15.32785523531001"
      },
      "geometry": {
        "type": "Point",
        "coordinates": [
          27.228251134375665,
          47.20435775729858
        ]
      }
    },
    {
      "type": "Feature",
      "properties": {
        "norad_id": 41603,
        "name": "LAPAN-A3",
        "group": "resource",
        "lat": 34.24772911872656,
        "lon": -179.4913802772265,
        "alt_km": 473.3555391302498,
        "timestamp": "2025-12-24T11:32:59.661262+00:00",
        "meta_object_name": "LAPAN-A3",
        "meta_object_id": "2016-040E",
        "meta_epoch": "2025-12-24T04:38:41.410176",
        "meta_mean_motion": 15.31642313,
        "meta_eccentricity": 0.0008701,
        "meta_inclination": 97.1432,
        "meta_ra_of_asc_node": 355.3333,
        "meta_arg_of_pericenter": 286.3924,
        "meta_mean_anomaly": 73.6362,
        "meta_ephemeris_type": 0,
        "meta_classification_type": "U",
        "meta_norad_cat_id": 41603,
        "meta_element_set_no": 999,
        "meta_rev_at_epoch": 52801,
        "meta_bstar": 0.00015739,
        "meta_mean_motion_dot": 4.739e-05,
        "meta_mean_motion_ddot": 0,
        "tle_line1": "1 41603U 16040E   25358.19353484  .00004739  00000+0  15739-3 0  9995",
        "tle_line2": "2 41603  97.1432 355.3333 0008701 286.3924  73.6362 15.31642313528019"
      },
      "geometry": {
        "type": "Point",
        "coordinates": [
          -179.4913802772265,
          34.24772911872656
        ]
      }
    },
    {
      "type": "Feature",
      "properties": {
        "norad_id": 41604,
        "name": "BIROS",
        "group": "resource",
        "lat": -3.353662616187121,
        "lon": 30.840266568616226,
        "alt_km": 295.306244173662,
        "timestamp": "2025-12-24T11:32:59.661273+00:00",
        "meta_object_name": "BIROS",
        "meta_object_id": "2016-040F",
        "meta_epoch": "2025-12-24T01:01:08.804064",
        "meta_mean_motion": 15.94180536,
        "meta_eccentricity": 0.0003827,
        "meta_inclination": 97.0659,
        "meta_ra_of_asc_node": 29.9644,
        "meta_arg_of_pericenter": 126.506,
        "meta_mean_anomaly": 233.6569,
        "meta_ephemeris_type": 0,
        "meta_classification_type": "U",
        "meta_norad_cat_id": 41604,
        "meta_element_set_no": 999,
        "meta_rev_at_epoch": 53052,
        "meta_bstar": 0.00058835,
        "meta_mean_motion_dot": 0.00216442,
        "meta_mean_motion_ddot": 1.9808e-05,
        "tle_line1": "1 41604U 16040F   25358.04246301  .00216442  19808-4  58835-3 0  9990",
        "tle_line2": "2 41604  97.0659  29.9644 0003827 126.5060 233.6569 15.94180536530528"
      },
      "geometry": {
        "type": "Point",
        "coordinates": [
          30.840266568616226,
          -3.353662616187121
        ]
      }
    },
    {
      "type": "Feature",
      "properties": {
        "norad_id": 41727,
        "name": "GAOFEN-3",
        "group": "resource",
        "lat": 67.23455461280429,
        "lon": -155.48691362167156,
        "alt_km": 744.1602541562634,
        "timestamp": "2025-12-24T11:32:59.661283+00:00",
        "meta_object_name": "GAOFEN-3",
        "meta_object_id": "2016-049A",
        "meta_epoch": "2025-12-24T04:22:33.519360",
        "meta_mean_motion": 14.42216623,
        "meta_eccentricity": 0.0001141,
        "meta_inclination": 98.4033,
        "meta_ra_of_asc_node": 3.5938,
        "meta_arg_of_pericenter": 56.2867,
        "meta_mean_anomaly": 303.8431,
        "meta_ephemeris_type": 0,
        "meta_classification_type": "U",
        "meta_norad_cat_id": 41727,
        "meta_element_set_no": 999,
        "meta_rev_at_epoch": 49342,
        "meta_bstar": 7.1077e-05,
        "meta_mean_motion_dot": 1.91e-06,
        "meta_mean_motion_ddot": 0,
        "tle_line1": "1 41727U 16049A   25358.18233240  .00000191  00000+0  71077-4 0  9993",
        "tle_line2": "2 41727  98.4033   3.5938 0001141  56.2867 303.8431 14.42216623493424"
      },
      "geometry": {
        "type": "Point",
        "coordinates": [
          -155.48691362167156,
          67.23455461280429
        ]
      }
    },
    {
      "type": "Feature",
      "properties": {
        "norad_id": 41771,
        "name": "SKYSAT-C4",
        "group": "resource",
        "lat": 32.714393374127994,
        "lon": 18.61397063363061,
        "alt_km": 436.6568522389589,
        "timestamp": "2025-12-24T11:32:59.661293+00:00",
        "meta_object_name": "SKYSAT-C4",
        "meta_object_id": "2016-058B",
        "meta_epoch": "2025-12-24T00:30:33.238656",
        "meta_mean_motion": 15.42560985,
        "meta_eccentricity": 0.0002485,
        "meta_inclination": 96.9362,
        "meta_ra_of_asc_node": 22.6612,
        "meta_arg_of_pericenter": 124.561,
        "meta_mean_anomaly": 235.5873,
        "meta_ephemeris_type": 0,
        "meta_classification_type": "U",
        "meta_norad_cat_id": 41771,
        "meta_element_set_no": 999,
        "meta_rev_at_epoch": 51841,
        "meta_bstar": 0.00034911,
        "meta_mean_motion_dot": 0.00015093,
        "meta_mean_motion_ddot": 0,
        "tle_line1": "1 41771U 16058B   25358.02121804  .00015093  00000+0  34911-3 0  9999",
        "tle_line2": "2 41771  96.9362  22.6612 0002485 124.5610 235.5873 15.42560985518411"
      },
      "geometry": {
        "type": "Point",
        "coordinates": [
          18.61397063363061,
          32.714393374127994
        ]
      }
    },
    {
      "type": "Feature",
      "properties": {
        "norad_id": 41772,
        "name": "SKYSAT-C5",
        "group": "resource",
        "lat": -43.354489685864635,
        "lon": 48.47478943892268,
        "alt_km": 469.98411279128686,
        "timestamp": "2025-12-24T11:32:59.661304+00:00",
        "meta_object_name": "SKYSAT-C5",
        "meta_object_id": "2016-058C",
        "meta_epoch": "2025-12-24T02:20:51.096768",
        "meta_mean_motion": 15.34073711,
        "meta_eccentricity": 0.000392,
        "meta_inclination": 97.0739,
        "meta_ra_of_asc_node": 41.3742,
        "meta_arg_of_pericenter": 236.4499,
        "meta_mean_anomaly": 123.637,
        "meta_ephemeris_type": 0,
        "meta_classification_type": "U",
        "meta_norad_cat_id": 41772,
        "meta_element_set_no": 999,
        "meta_rev_at_epoch": 51690,
        "meta_bstar": 0.00028857,
        "meta_mean_motion_dot": 9.444e-05,
        "meta_mean_motion_ddot": 0,
        "tle_line1": "1 41772U 16058C   25358.09781362  .00009444  00000+0  28857-3 0  9993",
        "tle_line2": "2 41772  97.0739  41.3742 0003920 236.4499 123.6370 15.34073711516905"
      },
      "geometry": {
        "type": "Point",
        "coordinates": [
          48.47478943892268,
          -43.354489685864635
        ]
      }
    }
  ]
}